name,tel,postal_code,address
東立出版社有限公司,(02)25587277,10353,臺北市大同區承德路二段81號10樓
城邦文化事業股份有限公司 尖端出版,(02)25007600*1066,10483,臺北市中山區民生東路二段141號10樓
臺灣角川股份有限公司,(02)27472433*102,10560,臺北市松山區光復北路11巷46號5樓
五南圖書出版股份有限公司,(02)27055066,10670,臺北市大安區和平東路二段339號4樓
諾森貝登有限公司,(02)27110200,10696,臺北市大安區忠孝東路4段170巷6弄7-1號5樓
碁峰資訊股份有限公司,(02)27882408*856,11560,臺北市南港區三重路66號7樓之6
千華數位文化股份有限公司,(02)22289070,23546,新北市中和區中山路三段136巷10弄17號
志光教育文化出版社,(06)2650818,10047,臺北市中正區開封街一段12號
說頻文化有限公司,(04)23366995,41460,臺中市烏日區五光路607巷20號
時報文化出版企業股份有限公司,(02)23087111,10803,臺北市萬華區和平西路三段240號3樓
花木蘭文化出版社,(02)29231455,23574,新北市中和區中安街72號13樓
臺灣東販股份有限公司,(02)25456277,10550,臺北市松山區南京東路四段130號2樓之1
九星文化出版社,(02)23891185,10041,臺北市中正區忠孝西路一段50號21樓之9
全華圖書股份有限公司,(02)22625666,23671,新北市土城區忠義路21號
長鴻出版社股份有限公司,(06)2648649*703,70044,臺南市青年路232巷1號
台科大圖書股份有限公司,(02)29085945,24257,新北市新莊區中正路649號7樓
商周出版,(02)25007008,10483,臺北市中山區民生東路二段141號9樓
遠見天下文化出版股份有限公司,(02)25173688,10455,臺北市中山區松江路93巷1號2樓
銘顯文化事業有限公司,(04)25687011*50,42877,臺中市大雅區永和路111-4號
三采文化股份有限公司,(02)87971234,11466,臺北市內湖區瑞光路513巷33號8樓
上奇資訊股份有限公司,(02)25627969,10457,臺北市中山區南京東路2段98號8樓之1
麗文文化事業股份有限公司,(07)2236780,80252,高雄市苓雅區五福一路57號2樓之2
聯經出版事業股份有限公司,(02)87876242,11005,臺北市信義區基隆路一段180號4樓
佳魁資訊股份有限公司,(02)25627756*2831,10457,臺北市中山區南京東路2段98號8樓之1
遠流出版事業股份有限公司,(02)23926899,10084,臺北市中正區南昌路2段81號6樓
普天出版社,(02)26921935,22180,新北市汐止區康寧街169巷21號9樓
新保成出版事業有限公司,(02)23880103,10047,臺北市中正區開封街1段18號
世一文化事業股份有限公司,(06)2618468,70248,臺南市南區新樂路46號
元照出版有限公司,(02)23756688,10047,臺北市中正區館前路18號5樓
木馬文化事業股份有限公司,(02)22181417*156,23141,新北市新店區民權路108-2號9樓
白象文化事業有限公司,(04)22652939*702,40253,臺中市南區美村路2段392號
新文京開發出版股份有限公司,(02)22448188,23557,新北市中和區中山路二段362號9樓
華格那企業有限公司,(04)22857299,40360,臺中市西區公益路130號7樓
經史子集出版社,(02)89923333,24243,新北市新莊區中正路300巷10弄2號5樓
新學林出版股份有限公司,(02)27001808,10670,臺北市大安區和平東路2段339號9樓
高雄復文圖書出版社,(07)2265267,80252,高雄市苓雅區五福一路57號2樓之2
晨星出版有限公司,(04)23595820*140,40767,臺中市工業區30路1號
英屬維京群島商高寶國際有限公司臺灣分公司,(02)27992788*199,11493,臺北市內湖區洲子街88號3樓
寂天文化事業股份有限公司,(02)23659739,10673,臺北市大安區新生南路三段88號4樓之5
鼎茂圖書出版股份有限公司,(02)23814314,10043,臺北市中正區博愛路60號4樓
藍襪子出版社,(04)7747612,50649,彰化縣福興鄉員鹿路二段180號
城邦文化事業股份有限公司 麥浩斯出版,(02)25007578,10483,臺北市中山區民生東路二段141號8樓
麥田出版,(02)25007696,10483,臺北市中山區民生東路二段141號5樓
松崗資產管理股份有限公司,(02)23830383,10041,臺北市中正區忠孝西路一段50號11樓之6
藍海製作有限公司,(02)29301211,11687,臺北市文山區興隆路二段22巷7弄2號1樓
三民書局股份有限公司,(02)25006600*504,10476,臺北市中山區復興北路386號
方集出版社股份有限公司,(03)6567336,30288,新竹縣竹北市台元一街8號5樓之7
青文出版社股份有限公司,(02)25681699,10442,臺北市中山區長安東路一段36號3樓
遠足文化事業股份有限公司,(02)22181417*2207,23141,新北市新店區民權路108-2號9樓
春天出版國際文化有限公司,(02)77180898,11052,臺北市信義區信義路四段458號3樓
啟動文化,(02)27182001,10543,臺北市松山區復興北路333號11樓之4
博碩文化股份有限公司,(02)26962869,22102,新北市汐止區新臺五路一段112號10樓A棟
新月文化事業股份有限公司,(02)29301211,11687,臺北市文山區興隆路二段22巷7弄2號1樓
親子天下股份有限公司,(02)25092800,10489,臺北市中山區建國北路1段96號11樓
釀出版,(02)27963638,11492,臺北市內湖區瑞光路76巷65號1樓
格林文化事業股份有限公司,(02)23517251,10651,臺北市大安區新生南路二段2號3樓
綜合出版社,(06)2630078,70263,臺南市南區永成路3段138號
小魯文化事業股份有限公司,(02)27320708,10672,臺北市大安區安居街6號12樓
楓書坊文化出版社,(02)29576096,22060,新北市板橋區信義路163巷3號10樓
大眾國際書局股份有限公司,(02)29589808*128,22069,新北市板橋區三民路二段37號16樓之1
華品文創出版股份有限公司,(02)23317103,10045,臺北市中正區重慶南路一段57號13樓之1
考用出版股份有限公司,(02)27096723,10667,臺北市大安區和平東路二段357巷2號4樓之2
旗標科技股份有限公司,(02)23963257,10050,臺北市中正區杭州南路一段15-1號19樓
日月文化出版股份有限公司,(02)27085509,10658,臺北市大安區信義路三段151號9樓
閣林文創股份有限公司,(02)82219888,23585,新北市中和區建一路137號6樓
大塊文化出版股份有限公司,(02)87123898,10550,臺北市松山區南京東路四段25號11樓
匹歐匹實業有限公司,(02)26982288,22101,新北市汐止區新台五路1段81號12樓
幼福文化事業股份有限公司,(02)22263070,23585,新北市中和區建康路130號4樓之2
希伯崙股份有限公司,(02)25782626*230,10559,臺北市松山區八德路三段32號12樓
甦活全球網路股份有限公司,(02)23705988,10047,臺北市中正區館前路49號10樓
天下雜誌股份有限公司,(02)26620332,10485,臺北市中山區南京東路二段139號11樓
深石數位科技股份有限公司,(02)25627969,10457,臺北市中山區南京東路2段98號8樓之1
精誠資訊股份有限公司,(02)27198811,10595,臺北市松山區復興北路99號12樓
采實文化事業股份有限公司,(02)25185198,10479,臺北市中山區建國北路2段92號9樓
漫遊者文化事業股份有限公司,(02)27152022,10544,臺北市松山區復興北路331號4樓
大地出版社有限公司,(02)26277749,11492,臺北市內湖區瑞光路358巷38弄36號4樓之2號
國立臺灣大學出版中心,(02)33664553,10617,臺北市大安區羅斯福路四段1號
華文網股份有限公司,(02)22487896,23584,新北市中和區中山路二段366巷10號10樓
?美生活文創股份有限公司,(02)22400891,23557,新北市中和區中山路2段350號5樓
瑞昇文化事業股份有限公司,(02)29453191,23582,新北市中和區景平路464巷2弄1之4號
萬卷樓圖書股份有限公司,(02)23216565,10643,臺北市大安區羅斯福路二段41號6F之3
皇冠文化出版有限公司,(02)27168888,10551,臺北市松山區敦化北路120巷50號
創意市集,(02)25007855*3706,10483,臺北市中山區民生東路二段141號7樓
大是文化有限公司,(02)23757911,10046,臺北市中正區衡陽路7號8樓
宏碩文化事業股份有限公司,(02)55999999,23144,新北市新店區中興路三段3號9樓
維京國際股份有限公司,(02)87971168,11491,臺北市內湖區瑞光路258巷50號5樓
臉譜出版,(02)25007696*2714,10483,臺北市中山區民生東路二段141號5樓
泛亞國際文化科技股份有限公司,(02)82219307,23553,新北市中和區建一路253號9樓
九歌出版社有限公司,(02)25776564,10558,臺北市松山區八德路三段12巷57弄40號
美商麥格羅希爾國際股份有限公司臺灣分公司,(02)23113000,10044,臺北市中正區博愛路53號7樓
拇指王文教科技有限公司,(02)86603177,23445,新北市永和區中興街133巷15號1樓
獨立作家,(02)27946283*142,11491,臺北市內湖區瑞光路76巷65號1樓
人類智庫數位科技股份有限公司,(02)86672555,23145,新北市新店區民權路115號5樓
墨刻出版股份有限公司,(02)25007008*6199,10483,臺北市中山區民生東路二段141號9樓
宏典文化出版股份有限公司,(02)89251958*17,23448,新北市永和區豫溪街156號1樓
京尼教育科技股份有限公司,(07)5505511,81358,高雄市左營區富民路285號
飛燕文創事業有限公司,(04)22638366,42041,臺中市南區樹義路65號
韋伯文化國際出版有限公司,(02)22324332,23444,新北市永和區永和路2段285號6樓
心理出版社股份有限公司,(02)29150566,23147,新北市新店區光明街288號7樓
宇河文化出版有限公司,(02)29143780,11476,臺北市內湖區文德路210巷30弄25號
貓咪予花兒工作室,(02)28382799,25152,新北市淡水區中山北路2段189巷110號3樓
INK印刻文學生活雜誌出版有限公司,(02)22281626,23586,新北市中和區建一路249號8樓
文史哲出版社,(02)23511028,10074,臺北市中正區羅斯福路一段72巷4號
狗屋出版社有限公司,(02)27765889,10492,臺北市中山區龍江路71巷15號1樓
茉莉出版社,(02)22361802,11641,臺北市文山區試院路4巷10弄6號5樓
經瑋文化,(02)29889111,24873,新北市五股區中興路2段83巷18號3樓
野人文化股份有限公司,(02)22181417*1271,23141,新北市新店區民權路108-3號6樓
繪虹企業股份有限公司,(02)22180701,23144,新北市新店區寶元路一段91-1號
大雁文化事業股份有限公司. 橡實文化,(02)27182001,10544,臺北市松山區復興北路333號11樓之4
校園書房出版社,(02)29182460,23141,新北市新店區民權路50號6樓
讀享數位文化股份有限公司,(02)23621678,10643,臺北市大安區和平東路一段8號10樓
威向有限公司,(02)26817935,238,新北市樹林區鎮前街183號1樓
遠東圖書股份有限公司,(02)23118740*363,10045,臺北市中正區重慶南路一段66之1號10樓
馬可孛羅文化,(02)25007696*2761,10483,臺北市中山區民生東路二段141號5樓
道聲出版社,(02)23938583,10641,臺北市大安區杭州南路二段15號2樓
風雲時代出版股份有限公司,(02)27560949,10576,臺北市松山區民生東路五段178號7樓之3
耕林出版社有限公司,(07)3130172,80751,高雄市三民區通化街47巷3之1號
青林國際出版股份有限公司,(02)87972777*512,11493,臺北市內湖區內湖路一段314號7樓之1
雅書堂文化事業有限公司,(02)89529826,22070,新北市板橋區板新路206號3樓
財團法人臺灣金融研訓院,(02)33653666*555,11084,臺北市中正區羅斯福路三段62號
太雅出版有限公司,(02)28360755,11167,臺北市士林區劍潭路13號2樓
合記圖書出版社,(02)86461828,22172,新北市汐止區汐平路2段1號
東雨文化事業有限公司,(07)3130172,80751,高雄市三民區通化街47巷3-1號
黃山國際出版社有限公司,(02)22234902,10045,臺北市中正區重慶南路1段57號7樓之8
積木文化,(02)23560933,10483,臺北市中山區民生東路二段141號5樓
螢火蟲出版社,(02)29650677,22055,新北市板橋區明德街3巷7號1樓
八旗文化,(02)22181417*161,23141,新北市新店區民權路108-3號8樓
城邦印書館股份有限公司,(02)25000888,10483,臺北市中山區民生東路2段141號B1
風車圖書出版有限公司,(02)26959502*254,22150,新北市汐止區福德一路392巷23號之1
楓葉社文化事業有限公司,(02)29576096,22041,新北市板橋區民生路2段210號5樓
瑞蘭國際有限公司,(02)27004625,10652,臺北市大安區安和路一段104號7樓之1
八方出版股份有限公司,(02)23887636,10843,臺北市萬華區中華路1段104號5樓
小熊出版社,(02)22181417*1391,23148,新北市新店區民權路108-3號6樓
世茂出版有限公司,(02)22183277,23150,新北市新店區民生路19號5樓
捷徑文化出版事業有限公司,(02)66368398*8810,10692,臺北市大安區忠孝東路四段218-7號7樓
暢談國際文化事業股份有限公司,(04)23780458,40357,臺中市西區美村路596巷1號
大石國際文化有限公司,(02)87971758,11493,臺北市內湖區堤頂大道二段181號3樓
法鼓文化事業股份有限公司,(02)28934646,11241,臺北市北投區公館路186號
大樂文化有限公司,(02)23898972*37,10056,臺北市中正區衡陽路20號3樓
狗狗圖書有限公司,(02)29262805,23448,新北市永和區中正路660號5樓
和裕出版社,(06)2454023,70953,臺南市安南區海佃路二段636巷5號
科友圖書股份有限公司,(02)22625666,23671,新北市土城區忠義路21號2樓
城邦文化事業股份有限公司 商業周刊,(02)25056789,10483,臺北市中山區民生東路二段141號8樓
風格司藝術創作坊,(02)87320530,10671,臺北市大安區安居街118巷17號
蓋亞文化有限公司,(02)25585438,10353,臺北市大同區赤峰街41巷7號1樓
臺灣廣廈有聲圖書有限公司,(02)22255777,23586,新北市中和區中山路二段359巷7號2樓
四季國際出版有限公司,(02)77180898,11052,臺北市信義區信義路4段458號3樓
財團法人資訊工業策進會產業情報研究所,(02)27356070*308,10669,臺北市大安區敦化南路二段216號19樓
華立圖書股份有限公司,(02)22217375,23545,新北市中和區員山路504號5樓之9
人類文化事業股份有限公司,(02)22181000,23141,新北市新店區民權路115號5樓
大展出版社有限公司,(02)28236031,11289,臺北市北投區致遠一路二段12巷1號
花園文化事業有限公司,(02)29301211,11687,臺北市文山區興隆路二段22巷7弄2號1樓
睿其書房,(02)23097610,10079,臺北市中正區泉州街55號2F
臺灣培生教育出版股份有限公司,(02)29188368,23143,新北市新店區北新路三段219號11樓D室
臺灣愛思唯爾有限公司,(02)25225900,10449,臺北市中山區中山北路二段96號
平安文化有限公司,(02)27168888,10551,臺北市松山區敦化北路120巷50號
布克文化出版事業部,(02)25007008,10483,臺北市中山區民生東路二段141號8樓
和平國際文化有限公司,(02)22263070,23557,新北市中和區中山路二段350號5樓
高立圖書有限公司,(02)22900318*252,24889,新北市新北產業園區五工三路116巷3號
新加坡商聖智學習亞洲私人有限公司臺灣分公司,(02)25580569,10341,臺北市大同區鄭州路87號9樓之1
達觀出版事業有限公司,(02)29351011,11670,臺北市文山區景文街1號4樓之2
貓頭鷹出版,(02)25007696,10483,臺北市中山區民生東路二段141號5樓
大旗出版社,(02)27235216,11051,臺北市信義區基隆路一段432號4樓之9
華碩文化科技有限公司,(04)26918586,43249,臺中市大肚區遊園路1段117-4號
人人出版股份有限公司,(02)29183366,23145,新北市新店區寶橋路235巷6弄6號7樓
大牌出版,(02)22181417*1180,23141,新北市新店區民權路108-2號9樓
秀威資訊科技股份有限公司,(02)27963638,11492,臺北市內湖區瑞光路76巷65號1樓
原點出版,(02)23113678,10544,臺北市松山區復興北路333號11樓之4
清涼音文化事業有限公司,(07)8033096,81268,高雄市小港區大鵬路144號
邀月文化事業股份有限公司,(02)29301211,11687,臺北市文山區興隆路二段22巷7弄2號1樓
聯合文學出版社股份有限公司,(02)27634300,11006,臺北市信義區基隆路一段178號10樓
小兵出版社有限公司,(02)77298580*188,10083,臺北市中正區牯嶺街148號4樓
文鶴出版有限公司,(02)23924820,10643,臺北市大安區金山南路二段200號8樓
四塊玉文創有限公司,(02)23774155,10679,臺北市大安區安和路二段213號2樓之2
華騰文化股份有限公司,(02)29739078,11691,臺北市文山區忠順街二段85巷1弄35號
樂果文化事業有限公司,(02)25453977,11494,臺北市內湖區舊宗路2段121巷19號
哈福企業有限公司,(02)29456985,23569,新北市中和區景新街347號11樓之6
書林出版有限公司,(02)23684938,10090,臺北市中正區羅斯福路四段60號3樓
智趣王數位科技股份有限公司,(02)23257188,10682,臺北市大安區信義路四段88號8樓
喜樂亞股份有限公司,(02)22468381,23556,新北市中和區永和路193號
醫療財團法人和信治癌中心醫院,(02)28970011,11259,臺北市北投區立德路125號
九童國際文化事業有限公司,(02)28095993,25173,新北市淡水區民權路75號4樓之2
國家出版社,(02)28951317,11269,臺北市北投區大興街9巷28號1樓
大田出版有限公司,(02)23696315,10445,臺北市中山區中山北路2段26巷2號2樓
天龍文創出版事業有限公司,(02)23312666,10045,臺北市中正區重慶南路1段105號
致良出版社有限公司,(02)25710558,10444,臺北市中山區南京西路12巷9號5樓
師友文化事業有限公司,(02)29118833,23145,新北市新店區寶興路45巷9弄1號4樓
圓神出版社有限公司,(02)25796600,10553,臺北市松山區南京東路四段50號6樓之1
學海出版社,953386585,80785,高雄市三民區立忠路18號10樓
水滴文化,(02)25007008,10483,臺北市中山區民生東路二段141號7樓
好讀出版有限公司,(04)23157795,40759,臺中市西屯區大有街13號
財團法人工業技術研究院產業經濟與趨勢研究中心,(03)5912494,31040,新竹縣竹東鎮中興路四段195號10館205室
賴世雄智網文教股份有限公司,(02)29111337,23147,新北市新店區北新路一段291號6樓
寶瓶文化事業股份有限公司,(02)27494988,11006,臺北市信義區基隆路一段180號8樓
易富文化有限公司,(02)23457222,11065,臺北市信義區忠孝東路5段372巷27弄78之1號1樓
博客思出版事業網,(02)23311675,10045,臺北市中正區重慶南路1段121號8樓之4
龍騰文化事業股份有限公司,(02)22999063,24890,新北市五股區五股工業區五權七路1號
五洲出版社,(02)22451285,23553,新北市永和區竹林路191巷20號1樓
正智出版社有限公司,(02)28316727,10367,臺北市大同區承德路三段267號10樓
古韻文化事業有限公司,(04)22319107,40153,臺中市東區三賢街2號1樓
如何出版社有限公司,(02)25796600,10553,臺北市松山區南京東路四段50號6樓之1
百善書房,(02)32343788,23545,新北市中和區立德街211號2樓
昌明文化有限公司,(02)23216565,33347,桃園市龜山區中原街32號
果樹出版社有限公司,(02)27765889,10492,臺北市中山區龍江路71巷15號1樓
揚智文化事業股份有限公司,(02)26647780,22204,新北市深坑區北深路三段260號8樓
旗立資訊股份有限公司,(02)23224846*823,10049,臺北市中正區忠孝東路一段83號B1
臺灣東華書局股份有限公司,(02)23890906,10045,臺北市中正區重慶南路一段147號3樓
禾馬文化事業有限公司,(02)66395508,11083,臺北市信義區忠孝東路五段508號4樓之1
華杏出版股份有限公司,(02)27975050,11493,臺北市內湖區洲子街72號5樓
臺灣商務印書館股份有限公司,(02)23683616,23150,新北市新店區復興路43號8樓
獨步文化,(02)25007696,10483,臺北市中山區民生東路二段141號5樓
薪橋出版社有限公司,(02)23719128,10047,臺北市中正區開封街一段20號7樓
布拉格文創社,(02)86615711,23154,新北市新店區安康路2段176號7樓
幼獅文化事業股份有限公司,(02)23146001,10045,臺北市中正區重慶南路一段66-1號3樓
康軒文教事業股份有限公司,(02)29189393,23146,新北市新店區中興路二段218巷11號
菁品文化事業有限公司,(02)22235029,23545,新北市中和區立德街211號2樓
華威國際事業有限公司,(02)22263147,23585,新北市中和區建康路150號2樓
詹氏書局,(02)23412856,10644,臺北市大安區和平東路一段177號9樓之5
遠景出版事業有限公司,(02)22545460,22044,新北市板橋區松柏街65號5樓
獵海人,(02)27963638,11466,臺北市內湖區瑞光路76巷69號2樓
大寫出版社,(02)27182001*701,10476,臺北市中山區復興北路333號11樓之4
大穎文化事業股份有限公司,(02)27469169,10597,臺北市松山區南京東路五段38-1號11樓
文房文化事業有限公司,(02)27099728,10661,臺北市大安區而瑞安街286號2樓
中華電視股份有限公司,(02)27756858,10612,臺北市大安區光復南路100號
心靈工坊文化事業股份有限公司,(02)27029186,10683,臺北市大安區信義路四段53巷8號2樓
光啟文化事業,(02)27402022,10688,臺北市大安區敦化南路一段233巷20號A棟
空中美語文教事業股份有限公司,(02)23916999,10644,臺北市大安區和平東路一段230號2樓
奇幻基地出版,(02)25007008*2211,10483,臺北市中山區民生東路二段141號5樓
華志文化事業有限公司,(02)22341779,11664,臺北市文山區興隆路4段96巷3弄6號4樓
華夏出版有限公司,(02)32343788,23556,新北市中和區立德街211號2樓
新自然主義股份有限公司,(02)27845369,10054,臺北市中正區杭州南路一段63號9樓
鴻漸文化,(02)22487896*337,23584,新北市中和區中山路2段366巷10號10樓
大家出版,(02)22181417,23148,新北市新店區民權路108-3號6樓
天恩出版社,(02)25153551,10455,臺北市中山區松江路23號10樓
可橙文化工坊,(02)77315558,23557,新北市中和區中山路2段352號2樓
書泉出版社,(02)27055066,10670,臺北市大安區和平東路二段339號4樓
海鴿文化出版圖書有限公司,(02)27273008,11084,臺北市信義區林口街54-4號1樓
翰蘆圖書出版有限公司,(02)23821120,10045,臺北市中正區重慶南路一段121號5樓之11
大乘定香精舍,(02)27638820,10589,臺北市松山區民生東路五段280號
及第出版社,(04)22352519,40452,臺中市北區德化街269號1樓
方智出版社股份有限公司,(02)25796600,10553,臺北市松山區南京東路四段50號6樓之1
吉的堡網路科技股份有限公司,(02)22185996,23142,新北市新店區建國路148號1樓
草原文創有限公司,(02)55799575,23441,新北市永和區環河東路1段118號1樓
新Book House,(02)86665711,23154,新北市新店區安康路2段176號7樓
新雨出版社,(02)29789529,24143,新北市三重區重安街102號8樓
滄海圖書資訊股份有限公司,(02)22263103,23552,新北市中和區中正路679號6樓
新陸書局股份有限公司,(02)23512587,10045,臺北市中正區重慶南路一段47號
中華書局,(02)87978669,11494,臺北市內湖區舊宗路二段181巷8號5樓
唐山出版社,(02)83692342,10647,臺北市大安區羅斯福路三段333巷9號B1
財團法人資訊工業策進會產業情報研究所,(02)27356070*308,10669,臺北市大安區敦化南路二段216號19樓
高點文化事業有限公司,(02)23896688*100,10047,臺北市中正區館前路12號11樓
鶴立出版事業部,(02)22487896,23584,新北市中和區中山路二段366巷10號3樓
蘭臺出版社,(02)23311675,10046,臺北市中正區重慶南路1段121號8樓之14
小樹文化有限公司,(02)27330288,11054,臺北市信義區崇德街38巷20號
上優文化事業有限公司,(02)23362363,24253,新北市新莊區化成路293巷32號
不求人文化有限公司,(02)23457222,11061,臺北市信義區忠孝東路五段372巷27弄78-1號1樓
方言文化出版事業有限公司,(02)29294680,10045,臺北市中正區重慶南路一段61號11F之12室
出色文化,(02)89146405,23158,新北市新店區寶興路45巷6弄5號6樓
如果出版,(02)27182001*201,10544,臺北市松山區復興北路333號11樓之4
良品文化館,(02)89524078,22070,新北市板橋區板新路206號3樓
知書房出版社,(02)87320530,10671,臺北市大安區安居街118巷17號
城邦原創股份有限公司,(02)25095506,10483,臺北市中山區民生東路二段141號6樓A室
信實文化行銷有限公司,(02)27491282,10596,臺北市松山區南京東5段64號8樓之1
凌零出版社,(02)23318262,10045,臺北市中正區重慶南路1段99號11樓之6
健行文化出版事業有限公司,(02)25776564,10558,臺北市松山區八德路三段12巷57弄40號
啟思文化事業股份有限公司,(02)77030330,25170,新北市淡水區中正東路2段27-5號5樓
凱特文化創意股份有限公司,(02)22633878*18,23660,新北市土城區明德路2段149號2樓
愛米粒出版有限公司,(02)25622159,10445,臺北市中山區中山北路2段26巷2號2樓
維他命文化有限公司,(02)22263070,23585,新北市中和區建康路150號
雙葉書廊有限公司,(02)23684198,10647,臺北市大安區羅斯福路三段269巷12號1樓
巧育文化事業有限公司,(02)22268300,23558,新北市中和區永和路363巷19號5樓
生命潛能文化事業有限公司,(02)28833989,11168,臺北市士林區承德路4段234號8樓
秀威經典,(02)27963638,11492,臺北市內湖區瑞光路76巷65號1樓
我識出版社有限公司,(02)25777136,11065,臺北市信義區忠孝東路5段372巷27弄78之1號1樓
原水文化,(02)25007008,10483,臺北市中山區民生東路二段141號5樓
國際學村出版社,(02)22255777,23554,新北市中和區中山路二段359巷7號2樓
渥瑪數位有限公司,(04)8325434,52399,彰化縣員林鎮員林郵局第36號信箱
新世紀美學出版社,(02)28058657,10452,臺北市中山區民族西路76巷12弄10號1樓
臺灣麥克股份有限公司,(02)87971168,11491,臺北市內湖區瑞光路258巷50號5樓
臺灣學生書局有限公司,(02)23928185*17,10643,臺北市大安區和平東路一段75巷11號1樓
樂友文化事業有限公司,(02)22400891*861,23544,新北市中和區中山路2段350號5樓
靜思人文志業股份有限公司,(02)28989888,10653,臺北市大安區忠孝東路三段217巷7弄35號
橡樹林文化,(02)23560933*293,10483,臺北市中山區民生東路2段141號5樓
大新書局,(02)82857171,10661,臺北市大安區瑞安街256巷16號
天下生活出版股份有限公司,(02)25078627,10485,臺北市中山區南京東路二段139號11樓
水星文化事業出版社,(02)32343788,23545,新北市中和區立德街211號2樓
允晨文化實業股份有限公司,(02)25072606,10487,臺北市中山區南京東路三段21號6樓
立?文化事業有限公司,(02)22192173,23150,新北市新店區中央六街62號1樓
本事出版,(02)27182001,10544,臺北市松山區復興北路33號11樓之4
北星圖書事業股份有限公司,(02)29229000,23455,新北市永和區中正路458號B1
春暉出版社,(07)7613385,80286,高雄市苓雅區正義路3巷8號
普林斯頓國際有限公司,(02)89903296,24889,新北市新北產業園區五工三路116巷3號
愛智圖書有限公司,(07)8121571,80664,高雄市前鎮區千富街235號
萬達盛有限公司,(02)89116611,23145,新北市新店區寶橋路235巷6弄6號1樓
人間出版社,(02)23370039,10874,臺北市萬華區長泰街59巷7號
小麥田出版,(02)25007696,10483,臺北市中山區民生東路2段141號5樓
大智文化有限公司,(02)82191358,23148,新北市新店區 寶橋路235巷6弄3號5樓
大揚出版社,(02)22448188,23558,新北市中和區中山路二段362號9樓
上誼文化實業股份有限公司,(02)23965303,10075,臺北市中正區重慶南路二段75號
中華聯創出版企業社,(06)2617062,70251,臺南市南區?埕路39號
朱雀文化事業有限公司,(02)23453868,11052,臺北市信義區基隆路二段13-1號3樓
企鵝創意出版有限公司,(06)2628093,70261,臺南市南區明興路321巷22-3號
哈佛英語出版社,(02)23896403,10047,臺北市中正區南陽街24號
振佑國際企業有限公司,(02)29114886,23143,新北市新店區寶安街66號
凌雲文創事業有限公司,(02)26921935,22150,新北市汐止區康寧路169巷25號6樓
悅讀名品出版有限公司,(02)86656864,23144,新北市新店區中興路3段309號
普天出版家族有限公司,(02)26921935,22180,新北市汐止區康寧街169巷25號6樓
凱信企業集團凱信企業管理顧問有限公司,(02)66368398,10692,臺北市大安區忠孝東路四段218-7號7樓
華藝學術出版社,(02)29266006,23452,新北市永和區成功路1段80號18樓
新手作,(02)89529826,22066,新北市板橋區板新路206號3樓
魔豆文化有限公司,(02)25585438,10352,臺北市大同區赤峰街41巷7號1樓
山田社文化事業有限公司,(02)27557622,10688,臺北市大安區安和路一段112巷17號7樓
元將文化股份有限公司,(02)22605209,23649,新北市土城區明德路一段74號4樓
先覺出版股份有限公司,(02)25703939,10550,臺北市松山區南京東路四段50號6樓之1
佛光文化事業有限公司,(07)6561921*1288,84049,高雄市大樹區興田村興田路153號
秀威少年,(02)27963638,11492,臺北市內湖區瑞光路76巷65號1樓
典藏藝術家庭股份有限公司,(02)25602220,10446,臺北市中山區中山北路一段85號7樓
柿子文化事業有限公司,(02)89314903*11,11677,臺北市文山區羅斯福路五段158號2樓
財團法人國語日報社,(02)23921133*1347,10078,臺北市中正區福州街2號
財團法人臺灣基督長老教會臺灣教會公報社,(06)2356277*122,70144,臺南市青年路334號
國立臺灣師範大學出版中心,(02)77345289,10610,臺北市大安區和平東路一段162號
華成圖書出版股份有限公司,(02)27975050,11493,臺北市內湖區洲子街72號5樓
晴空,(02)25007696,10483,臺北市中山區民生東路二段141號5樓
蕙風堂筆墨有限公司出版部,(02)82214695,10643,臺北市大安區和平東路一段77之1號
賽斯文化事業有限公司,(02)22196629,23150,新北市新店區中央七街26號3樓
驛站文化事業有限公司,(02)28136081,11164,臺北市士林區社中街346巷1-1號1樓
玉山社出版事業股份有限公司,(02)27753736,10686,臺北市大安區仁愛路四段145號3樓之2
布可屋文化,(02)29436268,25173,新北市淡水區清水街178號5樓
美樂蒂文教科技興業股份有限公司,(07)3227492,80743,高雄市三民區北平二街16號6樓
財團法人基督教以琳書房,(02)27772560,10686,臺北市大安區忠孝東路四段210號B1
斑馬線出版社,(02)26257956,25164,新北市淡水區重建街60號
博誌文化股份有限公司,(02)26962869,22102,新北市汐止區新臺五路一段112號10樓A棟
聞道出版社,(06)2144037,70041,臺南市中西區友愛街10號
臺灣顯密佛教教育功德會,978871837,23853,新北市樹林區學勤路546號17樓
上人文化事業股份有限公司,(02)22435977,23584,新北市中和區橋和路115號9樓
大元書局,(02)23087171,10851,臺北市萬華區南寧路35號
三悅文化圖書事業有限公司,(02)29453191,23582,新北市中和區景平路464巷2弄1之4號
水靈文創有限公司,(02)27996466,11444,臺北市內湖區內湖路一段387巷3弄2號1樓
永然文化出版股份有限公司,(02)23560809,10093,臺北市中正區羅斯福路二段9號7樓
台灣東方出版社股份有限公司,(02)25581117,10354,臺北市大同區承德路2段81號12樓之2
有鹿文化事業有限公司,(02)27727788,10651,臺北市大安區濟南路三段28號7樓
使徒出版社有限公司,(02)23625282,10647,臺北市大安區羅斯福路三段269巷3號
幸福文化出版社,(02)22181417,23141,新北市新店區民權路108-3號6樓
前衛出版社,(02)25865708,10468,臺北市中山區農安街153號4樓之3
索引數位股份有限公司,(02)32347528,23586,新北市中和區中正路880號10樓之3
益鳥科學藝術有限公司,(02)22570560,22043,新北市板橋區大同街43號7樓
財團法人國家實驗研究院科技政策研究與資訊中心,(02)27377657,10636,臺北市大安區和平東路二段106號14-15樓
啟芳出版社有限公司,(02)23639422,10646,臺北市大安區羅斯福路三段283巷21弄15號
博揚文化事業有限公司,(02)28485501,24762,新北市蘆洲區長安街269號2樓之1
日日幸福事業有限公司,(02)23682956,10643,臺北市大安區和平東路1段10號12樓之1
中國文化大學華岡出版部,(02)28614062,11114,臺北市士林區陽明山華岡路55號
和英文化事業有限公司,(03)5730806,30070,新竹市東區建中路140號
知翎文化,(02)26842577,23844,新北市樹林區中山路1段113號9樓之1
易博士文化,(02)25007008,10483,臺北市中山區民生東路二段141號5樓
建興文化事業有限公司,(02)22220866,23584,新北市中和區立德街26巷5弄1-1號
財團法人金屬工業研究發展中心,(07)3513121,81160,高雄市高楠公路1001號
財團法人商業發展研究院,(02)77131010*341,10665,臺北市大安區復興南路一段303號4樓
財團法人臺灣福音書房,(02)23414887,10060,臺北市中正區金山南路一段72號
笛藤出版圖書有限公司,(02)23583891,10076,臺北市中正區重慶南路三段1號3樓之1
新文創文化事業有限公司,(02)22263070*543,23585,新北市中和區建康路150號2樓
滿天星傳播有限公司,(02)29634688,22061,新北市板橋區三民路二段37號25樓之1
樂幼文化事業有限公司,(02)22400891,23544,新北市中和區中山路2段350號5樓
養生堂出版有限公司,(02)22743433,23662,新北市土城區學士路33巷29號8樓
親親文化事業有限公司,(02)22397890,11653,臺北市文山區萬和街8號9樓
蘋果屋出版社有限公司,(02)29228181,23575,新北市中和區中和路400巷31號1樓
大輿出版社股份有限公司,(02)23028665,10852,臺北市萬華區廣州街189號4樓
中華印經協會,(03)9587696,26644,宜蘭縣三星鄉三星路二段20號
好優文化,(02)89146405,23146,新北市新店區寶興路45巷6弄5號6樓
帕斯頓數位多媒體有限公司,(02)25222309,11474,臺北市內湖區瑞光路295號4樓
金塊文化事業有限公司,(02)22768940,24249,新北市新莊區立信三街35巷2號12樓
春光出版,(02)25007008,10483,臺北市中山區民生東路二段141號5樓
要有光,(02)27963638*134,11491,臺北市內湖區瑞光路76巷65號1樓
倍斯特出版事業有限公司,(02)23512007,10078,臺北市中正區福州街1號10樓之2
財團法人基督教宇宙光全人關懷機構,(02)23632107,10662,臺北市大安區和平東路二段24號8樓
常常生活文創股份有限公司,(02)23252332,10656,臺北市大安區建國南路1段304巷29號1樓
華都文化事業有限公司,(02)27975050,11493,臺北市內湖區洲子街72號5樓
華逵文教科技股份有限公司,(02)23811102,10047,臺北市中正區開封街一段20號4樓
敦煌書局股份有限公司,(02)87925001,11494,臺北市內湖區堤頂大道一段207號
新銳文創,(02)27963638,11491,臺北市內湖區瑞光路76巷65號1樓
經濟新潮社,(02)23560933*123,10483,臺北市中山區民生東路2段141號5樓
漢宇國際文化有限公司,(02)22263147,23585,新北市中和區建康路130號4樓之1
噴泉文化館,(02)89529826,22070,新北市板橋區板新路206號3樓
大都會文化事業有限公司,(02)27235216,11051,臺北市信義區基隆路一段432號4樓之9
中華民國對外貿易發展協會,(02)27255200,11012,臺北市信義區基隆路一段333號5-7樓
左岸文化事業有限公司,(02)22181417*231,23141,新北市新店區中正路506號4樓
平裝本出版有限公司,(02)27168888,10551,臺北市松山區敦化北路120巷50號
行人文化實驗室,(02)23958665*16,11049,臺北市中正區北平東路20號10樓
好的文化,(02)89146405,23158,新北市新店區寶興路45巷6弄5號6樓
佛光出版社,(07)6561921*1288,84049,高雄市大樹區興田路153號
前程文化事業有限公司,(02)29956488,24160,新北市三重區重新路五段609巷4號8樓之8
信誼基金出版社,(02)23965303*2501,10075,臺北市中正區重慶南路二段75號
高等教育文化事業有限公司,(02)23886368,10047,臺北市中正區館前路26號6樓
眾文圖書股份有限公司,(02)23118167,10046,臺北市中正區重慶南路一段9號
張老師文化事業股份有限公司,(02)23697959,10647,臺北市大安區羅斯福路三段325號B1
雅事文化事業有限公司,(02)22442229,23555,新北市中和區中山路二段362-3號10樓
華泰文化事業股份有限公司,(02)21621217*321,11494,臺北市內湖區新湖二路201號
智囊團顧問股份有限公司,(02)24685050,20142,基隆市信義區深澳坑路2-32號2樓
萬人出版社有限公司,(02)22980501,24890,新北市新北產業園區五權七路68號3樓
鼎文書局,(02)23319797,11045,臺北市中正區重慶南路一段49號4樓
楓樹林出版事業有限公司,(02)29576096*12,22061,新北市板橋區信義路163巷3號10樓
輔大書坊,(02)29052227,24205,新北市新莊區中正路510號
旗林文化出版社有限公司,(02)23774155,10679,臺北市大安區安和路二段213號4樓
臺灣東方出版社股份有限公司,(02)25581117,10354,臺北市大同區承德路2段81號12樓之2
鄭媛書房,(03)4802382,32548,桃園市龍潭區五福街373號
靜宜大學臺灣文學系,(04)26328001*17031,43301,臺中市沙鹿區臺灣大道7段200號
一中心有限公司,(04)22522969,40756,臺中市西屯區市政北二路236號14樓之3
大拓文化事業有限公司,(02)86473663,22103,新北市汐止區大同路三段194號9樓之1
大喜文化有限公司,(02)22231391,23556,新北市中和區板南路498號7樓之2
中國學園傳道會出版部,(02)29262712,23455,新北市永和區安樂路194巷37號
丹陽文化有限公司,(02)23587893,10055,臺北市中正區丹陽街8-1號
巨流圖書股份有限公司,(07)2265267,80252,高雄市苓雅區五福一路57號2樓之2
匠心文化創意行銷有限公司,(02)28927667,11241,臺北市北投區溫泉路37巷28號6樓之2
究竟出版社股份有限公司,(02)25703939,10553,臺北市松山區南京東路四段50號6樓之1
奇光出版,(02)22181417*1221,23141,新北市新店區民權路108-1號4樓
東佑文化事業有限公司,(02)25501632,10352,臺北市大同區南京西路61號5樓
東岱專業圖書有限公司,(02)29559499,22061,新北市板橋區和平路安樂巷6弄12號
致知學術出版社,(02)23318262*18,10045,臺北市中正區重慶南路一段99號11樓之6(1107室)
品冠文化出版社,(02)28233123,11289,臺北市北投區致遠一路二段12巷1號
南港山文史工作室,(02)27591204,11078,臺北市信義區福德街232巷16弄1號1樓
香遠出版社,(08)7525768,90081,屏東縣屏東市建國路160號
雅典文化事業有限公司,(02)86473663,22103,新北市汐止區大同路三段194號9樓之一
博思智庫股份有限公司,(02)25623277,10467,臺北市中山區松江路206號14樓之4
喬福圖書有限公司,(02)82275705,23586,新北市中和區永和路363巷17號5樓
新星球出版,(02)27180001*610,10543,臺北市松山區復興北路333號11樓之4
新經典圖文傳播有限公司,(02)23311830,10045,臺北市中正區重慶南路一段57號11樓之4
福地出版社,(02)27099728,10661,臺北市大安區瑞安街286號2樓
摩西出版社,(04)23021352,40350,臺中市西區中興三巷17號
橄欖出版有限公司,(02)32347278*640,23553,新北市中和區連城路236號3樓
一起來出版,(02)22181417,23141,新北市新店區民權路108-2號9樓
也是文創有限公司,(02)29316891,11689,臺北市文山區興隆路2段275巷1弄2號1樓
大龍海文化事業有限公司,(02)23880356,10041,臺北市中正區公園路26號3樓
文經出版社有限公司,(02)25176688,24158,新北市三重區光復路1段61巷27號11樓
志聖教育文化出版社,(06)2311168,10047,臺北市中正區開封街一段12號
金名圖書有限公司,(02)82277736,23558,新北市中和區建一路1號8樓
青空文化有限公司,(02)55792899,10689,臺北市大安區仁愛路4段107號7樓
拓墣科技股份有限公司,(02)89786498,10457,臺北市中山區南京東路3段70號11樓
南方家園文化事業有限公司,(02)25705215,10558,臺北市松山區八德路3段12巷66弄22號
原動力文化事業有限公司,(02)25585438,10353,臺北市大同區赤峰街41巷7號1樓
旅郵者有限公司,(09)15803237,70951,臺南市安南區義安街86巷26號1F
晟景數位文化股份有限公司,(07)2227368,80271,高雄市苓雅區中正二路74號10樓
泰電電業股份有限公司,(02)23811180*382,10043,臺北市中正區博愛路76號8樓
經典雜誌,(02)28989990*2019,11259,臺北市北投區立德路2號12樓
慈濟人文出版社,(02)28989888,10653,臺北市大安區忠孝東路3段217巷7弄19號
鳳凰網路有限公司,(02)87320530,10672,臺北市大安區安居街118巷17號1樓
憲業企管顧問有限公司,(02)27622241,10563,臺北市松山區八德路四段36巷60號2樓
文笙書局股份有限公司,(02)23814280,10041,臺北市中正區忠孝西路一段233號
玄奘印刷文化有限公司,(02)22988865,24892,新北市新莊區五權一路1號4樓之1
好事文化事業出版社,(02)22005243,23158,新北市新店區安祥路102巷42弄83號
光慧文化事業股份有限公司,(02)22424966,40465,臺中市北區太原路三段78號
快樂遊出版有限公司,(02)22743433,23662,新北市土城區學士路33巷29號8樓
東大圖書股份有限公司,(02)25006600*504,10476,臺北市中山區復興北路386號
采葒出版社,(02)26091246,24448,新北市林口區文化二路一段120巷7號1樓
社團法人雲林縣雲林故事人協會,911101338,63253,雲林縣虎尾鎮興南里興南501-9號
財團法人基督教中國主日學協會出版部,(02)25711144,10448,臺北市中山區中山北路二段105號
財團法人臺北市大乘基金會,(02)23145010,10042,臺北市中正區漢口街一段132號6樓
眾生文化出版有限公司,(02)89671019,22061,新北市板橋區四川路二段16巷3號6F
雪明講習堂,932708487,50345,彰化縣花壇鄉長春村福德巷2號
凱立智語文出版有限公司,(02)29100269,23144,新北市新店區寶元路1段87巷19號5樓
新手父母出版,(02)25007008,10483,臺北市中山區民生東路二段141號8樓
零極限文化出版社,(02)26068228,24448,新北市林口區文化二路1段266號16樓之1
源樺出版事業股份有限公司,(02)22181000*2280,23141,新北市新店區民權路115號5樓
蒼璧出版有限公司,(02)87323958,10679,臺北市大安區樂利路86巷4號1樓
橘子文化事業有限公司,(02)23774155,10679,臺北市大安區安和路二段213號4樓
龍少年,(02)27043265,10682,臺北市大安區信義路4段98號12樓之2
橙實文化有限公司,(02)86423288,22167,新北市汐止區龍安路28巷12號24樓之4
二魚文化事業有限公司,(02)23515288,10644,臺北市大安區和平東路一段121號3樓之2
中央警察大學出版社,(03)3282321*4108,33304,桃園市龜山區大崗村樹人路56號
今周刊出版社股份有限公司,(02)25816196,10454,臺北市中山區南京東路一段96號6樓
永大書局有限公司,(02)23613171,10044,臺北市中正區重慶南路一段10號5樓之1
禾楓書局有限公司,(02)29371703,11661,臺北市文山區忠順街二段85巷1弄35號
改革宗出版有限公司,(02)27181110,10580,臺北市松山區南京東路四段75巷30號
亞洲圖書有限公司,(02)26921935,22180,新北市汐止區康寧街169巷21號9樓
金蘋果圖書有限公司,(02)22991558,11469,臺北市內湖區行善路168巷21號5樓
城邦文化事業股份有限公司 Trendy文化出版事業部,(02)25007008,10483,臺北市中山區民生東路二段141號7樓
風和文創事業有限公司,(02)25361118,10455,臺北市中山區松江路2號13樓之8
紅通通文化出版社,(02)29106069,23146,新北市新店區德正街27巷28號
英屬蓋曼群島商網路與書股份有限公司臺灣分公司,(02)25467799,10550,臺北市松山區南京東路四段25號11樓
晶冠出版有限公司,(02)22451480,23557,新北市中和區中山路二段352號2樓
博識圖書出版有限公司,(02)23118168,10044,臺北市中正區漢口街一段85號11樓之9
愛尼曼數位科技股份有限公司,(02)27853033,11570,臺北市南港區成功路一段32號9F之1
滄海書局,(04)27088787,40757,臺中市西屯區臺中港路二段122-19號11樓
瑞麗美人國際媒體,(02)22261888,23586,新北市中和區中山路二段359巷7號2樓
爾雅出版社有限公司,(02)23652555,10080,臺北市中正區廈門街113巷33-1號1樓
稻鄉出版社,(02)22566844,22041,新北市板橋區漢生東路53巷28號
龍岡數位文化股份有限公司,(02)22238815,23585,新北市中和區建六路67巷2號
薪展文化事業有限公司,921155033,54447,南投縣國姓鄉中正路1段300號1樓
藝風堂出版社,(02)23632535,10645,臺北市大安區泰順街44巷9號1樓
藝術家出版社,(02)23932780,10045,臺北市中正區重慶南路一段147號6樓
讀品文化事業有限公司,(02)86473663,22103,新北市汐止區大同路三段194號9樓之1
Smart智富文化,(02)25007977,10483,臺北市中山區民生東路二141號8樓
一品文化出版社,(02)23759472,10044,臺北市中正區開封街一段37號10樓
力得文化,(02)23512007,10078,臺北市中正區福州街1號10樓之2
三藝出版有限公司,(02)85213848,24253,新北市新莊區化成路293巷32號
心弦文化出版社,(02)26962869,22102,新北市汐止區新台五路1段112號10樓A棟
天音國際股份有限公司,(02)32346080,23585,新北市中和區建康路130號7樓之7
邦聯文化事業有限公司,(02)23097610,10079,臺北市中正區泉州街55號2F
果力文化,(02)23650889,10544,臺北市松山區復興北路331號4樓
尚昂文化事業國際有限公司,(02)29284698,23443,新北市永和區仁愛路115號1樓
知青頻道出版有限公司,(02)27953656,11494,臺北市內湖區舊宗路二段121巷28號
核心文化事業有限公司,(07)3130172*22,80751,高雄市三民區通化街47巷3-1號
財團法人創價文教基金會,(02)28881777*232,11144,臺北市士林區至善路2段250號
悅閱多媒體股份有限公司,(02)23658508,23450,新北市永和區福和路318號6樓之7
漢欣文化事業有限公司,(02)89116040,23146,新北市新店區中興路二段218巷10號2樓
衛城出版,(02)22181417*3283,23141,新北市新店區民權路108-4號8樓
德威國際文化事業有限公司,(02)22341299,11664,臺北市文山區興隆路4段96巷3弄6號4樓
寰宇出版股份有限公司,(02)27218138*363,10689,臺北市大安區仁愛路四段109號13樓
翰林出版事業股份有限公司,(06)2631188,70248,臺南市南區新樂路76號
千佛山白雲出版社,(07)3461929,81361,高雄市左營區文府路542號1樓
文字復興有限公司,(02)27055066,10670,臺北市大安區和平東路二段339號4樓
石青畫會,(02)22762655,24249,新北市新莊區中平路26巷62號4樓
北極之光文化出版有限公司,(02)26250666,26543,宜蘭縣羅東鎮尚智街7號6樓之1
田園城市文化事業有限公司,(02)25319081,10445,臺北市中山區中山北路二段72巷6號
自由之丘文創事業,(02)22181417*1298,23141,新北市新店區民權路108-2號9樓
光現出版,(02)22181417*3410,23141,新北市新店區民權路108-3號4樓
宏智國際文創股份有限公司,(02)26940799,22154,新北市汐止區南陽街252號4樓
東西圖書事業股份有限公司,(02)23114103,10041,臺北市中正區忠孝西路一段50號17樓之35
奇異果文創事業有限公司,(02)23684068,10647,臺北市大安區羅斯福路3段193號7樓
政大出版社,(02)29393091*62979,11605,臺北市文山區指南路二段64號
姚姚老師的數學教室,(05)2263411*1923,62103,嘉義縣民雄鄉文隆村85號
香海文化事業有限公司,(02)27483302,24150,新北市三重區三和路3段117號6樓
師大書苑有限公司,(02)23973030,10644,臺北市大安區和平東路一段147號11樓之2
時英出版社,(02)23637348,10673,臺北市大安區新生南路三段88號3樓之1
財團法人中華民國證券暨期貨市場發展基金會,(02)23971222*350,10066,臺北市中正區南海路3號9樓
財團法人臺灣聖經公會,(02)26649909,22204,新北市深坑區北深路3段254號6樓
國立交通大學出版社,(03)5731784,30010,新竹市大學路1001號
教育之友文化,(02)22227270,23584,新北市中和區中山路二段530號6樓之1
培育文化事業有限公司,(02)86473663,22103,新北市汐止區大同路三段194號9樓之1
開始出版有限公司,(02)29185422,23146,新北市新店區中正路154巷14號2樓
凱信企業集團開企有限公司,(02)27736566,10692,臺北市大安區忠孝東路4段218-7號7樓
新文豐出版股份有限公司,(02)23415293,10883,臺北市萬華區雙園街96號
臺北生活讀書新知三聯書店有限公司,(02)23317103,10045,臺北市中正區重慶南路1段99號7樓
漢湘文化事業股份有限公司,(02)22263070,23557,新北市中和區中山路二段352號5樓
養沛文化館,(02)89529826,22070,新北市板橋區板新路206號3樓
黎明文化事業股份有限公司,(02)23821152,10045,臺北市中正區重慶南路一段49號3樓
廣場出版社,(02)22181417*3113,23141,新北市新店區民權路108-3號6樓
震撼出版事業有限公司,(02)87320530,10671,臺北市大安區安居街118巷17號
學生週刊出版有限公司,(02)27686026,10561,臺北市松山區八德路4段135號6樓
優尼旺企業有限公司,(02)22590171,10374,臺北市大同區重慶北路3段136巷17號5樓
Higher Education Forum,(02)27401498,10666,臺北市大安區復興南路1段129號12樓-1
一貫義理編輯苑,(02)22151301,23157,新北市新店區安康路3段748號
大樹林出版社,(02)22227270,23584,新北市中和區中山路二段530號6樓之1
天使出版國際文化有限公司,(02)77180898,11052,臺北市信義路四段458號3樓
天空數位圖書有限公司,(04)22623893,40255,臺中市南區忠明南路787號30樓
中華徵信所企業股份有限公司,(02)87873266*860,11070,臺北市信義區東興路57號5樓
天衛文化圖書股份有限公司,(02)27320708,10672,臺北市大安區安居街6號12樓
平心工作室,(02)26842577,23844,新北市樹林區中山路1段113號9樓之1
西北國際文化有限公司,(02)22263070*539,23679,新北市土城區民族街11號3樓
字畝文化創意有限公司,(02)22181417,23141,新北市新店區民權路108-1號4樓
林廷數學出版社,(07)2725830,80054,高雄市新興區中正三路129號2樓之1
佳音事業股份有限公司,(02)27016769,10679,臺北市信義路四段306號15樓
東海大學圖書館,(04)23590121*28700,40704,臺中市西屯區台中港路三段181號
長晉數位股份有限公司,(04)23263585,40361,臺中市西區忠明南路16號9樓之3
社團法人中華民國國度豐收協會附屬希伯崙異象工場,(02)27085007,10659,臺北市大安區建國南路二段201號12樓
洪葉文化事業有限公司,(02)23632866,10673,臺北市大安區羅斯福路三段283巷14弄22號3樓
倫悅企業有限公司,(02)23634655,10643,臺北市大安區羅斯福路二段81巷15號4樓
財團法人中興工程科技研究發展基金會,(02)25774567,10595,臺北市松山區南京東路四段186號4樓之9
淡江大學出版中心,(02)86318661,25137,新北市淡水區英專路151號
啟英文化事業有限公司,(02)29181852,23141,新北市新店區民權路46-4號4樓
逗點文創結社,(03)3359366,33047,桃園市桃園區中央街11巷4-1號
復文圖書有限公司,(06)2370003,70142,臺南市林森路二段63號
尊彩國際藝術有限公司,(02)27971100,11492,臺北市內湖區瑞光路366號
黑眼睛文化事業有限公司,(02)23219703,10049,臺北市中正區林森北路5巷9號3樓
智富出版有限公司,(02)22183277,23150,新北市新店區民生路19號5樓
敬哲五術研究中心,(04)8382669,51050,彰化縣員林市永興街65號
暖暖書屋文化事業股份有限公司,(02)29106069,23146,新北市新店區德正街27巷28號
豪風出版有限公司,(02)82453939,23555,新北市中和區中山路2段118號3樓之1
臺灣艾瑪文化事業股份有限公司,(07)2227168,80253,高雄市苓雅區光華一路206號15樓之2
廣達文化事業有限公司,(02)27283588,11078,臺北市信義區中坡南路287號5樓
寫樂文化有限公司,(02)66175759,10691,臺北市大安區四維路14巷4-1號
學生閣有限公司,(02)23517755,10643,臺北市羅斯福路2段41號6樓之1
龍視界,(02)27043265,10682,臺北市大安區信義路4段98號12樓之2
十力文化出版有限公司,(02)29352758,11675,臺北市文山區萬隆街45之2號
方舟文化出版社,(02)22181417*3261,23141,新北市新店區民權路108-3號6樓
文津出版社有限公司,(02)23635008,10659,臺北市大安區建國南路二段294巷1號
文國書局,(06)2676555,70147,臺南市崇明路96號
方廣文化事業有限公司,(02)23920003,10644,臺北市大安區和平東路一段177-2號11樓
生命樹國際股份有限公司,(03)3287707,33382,桃園市龜山鄉文化一路71號
米奇巴克有限公司,(02)23698982,10090,臺北市中正區羅斯福路四段56號7樓之1
步步出版,(02)22181417,23141,新北市新店區民權路108-3號8樓
即時文化,(02)86672555,23141,新北市新店區民權路115號4樓
阿布拉教育文化有限公司,(02)23689416,10090,臺北市中正區羅斯福路四段56號4樓
金時代文化出版有限公司,(02)82520660,22042,新北市板橋區縣民大道三段205巷5號
阜盛文教事業有限公司,(07)7272363,80460,高雄市苓雅區和平一路145巷1號
典絃音樂文化國際事業有限公司,(02)26242316,25170,新北市淡水區民族路10-3號6樓
保銷國際文化事業股份有限公司,(02)27928557*11494,11494,臺北市內湖區行愛路78巷28號2樓之1
南懷瑾文化事業有限公司,(02)23675678,10647,臺北市大安區羅斯福路3段125號5樓之3
財團法人生物技術開發中心,(02)26956933,22180,新北市汐止區康寧街169巷101號
財團法人佛光山文教基金會,(07)6561921*1120,84049,高雄市大樹區興田村興田路153號
常春藤有聲出版有限公司,(02)23317600*18,10041,臺北市中正區忠孝西路一段33號5樓
麥書國際文化事業有限公司,(02)23636166,10647,臺北市羅斯福路三段325號4樓之2
智勝文化事業有限公司,(02)23886368,10047,臺北市中正區館前路26號6樓
開學文化事業股份有限公司,(02)23016364,10076,臺北市中正區泉州街9號3樓
慈光星酉講堂有限公司,953090305,11011,臺北市信義區信義路5段5號5樓5B05室
瑞成書局,(04)22808033,40148,臺中市東區天乙街107號
群星文化,(02)27528740,10654,臺北市大安區忠東孝東路3段247號6樓
新樂園出版,800221029,23141,新北市新店區民權路108-2號9樓
實力圖書出版企業有限公司,(02)23820353,10047,臺北市中正區館前路65號10樓
臺中市佛教蓮社,(04)22223737,40247,臺中市南區民生路23巷14號
漢珍數位圖書股份有限公司,(02)27361058,11056,臺北市信義區和平東路三段315號7樓
潮21Book,(02)26642511,23154,新北市新店區安康路2段176號7樓
樂木文化有限公司,(02)25988100,10365,臺北市大同區民族西路76巷12弄12號1樓
廣文書局有限公司,(02)86685204,23567,新北市中和區華新街113巷2弄6號
稻田出版有限公司,(02)29262805,23448,新北市永和區中正路660號5樓
膳書房文化事業有限公司,(02)22429627,23557,新北市中和區中山路二段362-3號10樓
學富文化事業有限公司,(02)23780358,10660,臺北市大安區和平東路二段118巷2弄20號
龍圖騰文化有限公司,(02)27043265,10682,臺北市大安區信義路4段98號12樓之2
彌勒皇教文化事業股份有限公司,(02)25613858,10468,臺北市中山區民權東路二段90號
櫻桃出版有限公司,(02)23684938,10090,臺北市中正區羅斯福路四段60號3樓
三之三文化事業股份有限公司,(02)29306999,11678,臺北市文山區羅斯福路五段218巷4號1樓
大燈文化事業股份有限公司,(04)23311919,41352,臺中市霧峰區林森路701號
大鴻藝術股份有限公司,(02)25590510,10349,臺北市大同區鄭州路87號11樓之2
中華文化總會,(02)23964256,10066,臺北市中正區重慶南路二段15號
甲上文創多媒體事業有限公司,(02)27686026*313,10561,臺北市松山區八德路四段135號6樓
正因文化事業有限公司,(02)25230878,10450,臺北市中山區中山北路二段115巷43號6樓之1
出版菊文化事業有限公司,(02)28387996,11142,臺北市士林區雨聲街77號1樓
永望文化事業有限公司,(02)23680350,10088,臺北市中正區師大路170號3樓之3
弘揚圖書有限公司,(02)32341503,23584,新北市中和區中山路二段482巷19號2樓
光采文化出版事業有限公司,(02)29262352,23455,新北市永和區中正路454巷6-1號1樓
全音樂譜出版社有限公司,(02)23091171,10069,臺北市中正區汀州路一段105號6樓
河圖文化有限公司,(02)23891185,10049,臺北市中正區忠孝東路一段50號21樓之9
柿藤出版社,(02)26430053,22156,新北市汐止區伯爵街39巷20號1樓
時兆出版社,(02)27726420,10556,臺北市松山區八德路二段410巷5弄1號2樓
財團法人周大觀文教基金會,(02)29178770,23142,新北市新店區明德路52號3樓
財團法人臺北市文化基金會臺北當代藝術館,(02)25523721,10351,臺北市大同區長安西路39號
啟明出版事業股份有限公司,(03)5222463,30043,新竹市民族街27號5樓
商訊文化事業股份有限公司,(02)23380861,10855,臺北市萬華區艋舺大道303號
商鼎數位出版有限公司,(02)23923558,10642,臺北市大安區金山南路二段138號2樓
華文精典,(02)89146405,23145,新北市新店區寶興路45巷6弄5號6樓
進源文化事業有限公司,(02)23042670,10853,臺北市萬華區華西街61-1號1樓
壹零壹數位科技股份有限公司,(04)25611901,42086,臺中市豐原區仁洲街159號3樓
新苗文化事業有限公司,(02)23320430,10079,臺北市中正區和平西路一段150號4樓之4
匯展文化事業有限公司,(02)77159788,10008,臺北市中正區重慶南路1段83號6樓
電腦人文化,(02)25007855,10483,臺北市中山區民生東路二段141號7樓
網迅雲端股份有限公司,(03)4262090,32070,桃園市中壢區環北路398號5樓之7
種籽文化事業有限公司,(02)27685812,11087,臺北市信義區虎林街46巷35號1樓
臺南社區大學土道公民寫作社,(06)2515670,70050,臺南市中西區公園路8號
酷派音樂,(04)23609333,40142,臺中市東區精武路102號
語研學院出版社,(02)22255777*309,23586,新北市中和區中山路二段359巷7號2樓
臺灣知識庫股份有限公司,(02)23315551*297,10043,臺北市中正區博愛路60號3樓
樂活文化事業股份有限公司,(02)23255345,10696,臺北市大安區延吉街233巷3號6樓
九華圖書社,(07)7336826,83350,高雄市鳥松區?埔路4巷12號
士雅文化有限公司,(02)27816760,10694,臺北市大安區光復南路96巷2-1號1樓
大辣出版股份有限公司,(02)27182698,10581,臺北市松山區健康路11-1號8樓
天行書苑,(02)23675678,10647,臺北市大安區羅斯福路3段125號5樓之3
天培文化有限公司,(02)25776564,10558,臺北市松山區八德路三段12巷57弄40號2樓
中國生產力中心,(02)26982989*2200,22101,新北市汐止區新台五路一段79號2樓
先天救教道院臺灣總主院,(02)27036688,10665,臺北市大安區復興南路1段303號14樓
西西弗斯文化出版,(02)27963638,11466,臺北市內湖區瑞光路76巷65號1樓
里仁書局,(02)23517610,10063,臺北市中正區仁愛路2段98號5樓之2
更生文化設計有限公司,(02)28369888,10641,臺北市大安區信義路2段72號B1
定易股份有限公司,(07)2352586,80052,高雄市新興區中正三路158號12樓之1
知英文化事業有限公司,(02)23361292,10861,臺北市萬華區萬大路27號2樓
南一書局企業股份有限公司,(06)2656565,70266,臺南市安平工業區新平路25號
冠唐國際圖書股份有限公司,(02)87925001,11494,臺北市內湖區堤頂大道一段207號
英屬維京群島商四也資本有限公司臺灣分公司,(02)25066111,10665,臺北市中山區復興北路290號15樓
留守番工作室,921997662,24156,新北市三重區大勇街32號4樓
時空膠囊音樂社,(02)29423327,22582,新北市中和區秀朗路三段128巷13-2號
宬嘉文化有限公司,(02)82419139,23554,新北市中和區中山路二段131巷13弄13號
財團法人邱再興文教基金會,(02)28942272*12,11268,臺北市北投區大業路166號11樓
財團法人聖保祿孝女會附設上智文化事業,(02)29017342,10041,臺北市中正區忠孝西路一段21號
財團法人靈鷲山般若文教基金會附設出版社,(02)22321008,23444,新北市永和區保生路2號20樓
啟示出版,(02)25007008*2680,10483,臺北市中山區民生東路二段141號9樓
國立清華大學出版社,(035)715131*5050,30013,新竹市東區光復路二段101號
健康世界有限公司,(02)23936557,10093,臺北市中正區金華街43巷5號1樓
教會公報出版社,(06)2356277,70144,臺南市青年路334號
智力工作坊,(02)22218612,23450,新北市永和區福和路240號3樓
逸文武術文化有限公司,(02)23311840,10045,臺北市中正區重慶南路一段57號9樓之2
普生數位科技有限公司,(04)23131889,40756,臺中市西屯區漢口路一段101號
華雲數位股份有限公司,(02)25007008,10483,臺北市中山區民生東路2段141號7樓
集夢坊,(02)22487896,23584,新北市中和區中山路二段366巷10號10樓
華藝創意,(02)55722127,10686,臺北市大安區忠孝東路4段176之1號2樓
新一代圖書有限公司,(02)22211380,23544,新北市中和區中正路908號B1
新月圖書股份有限公司,(02)23114027,10045,臺北市中正區重慶南路一段147號3樓
群學出版有限公司,(02)22185418,23141,新北市新店區中正路508號5樓
臺北擎天版權代理有限公司,(02)26620866,22205,新北市深坑區北深路三段270巷18號4樓
翠柏林企業股份有限公司,(07)3649847,80778,高雄市三民區建工路472號
德惠雜誌社,(07)3221588,80754,高雄市三民區龍江街110號
樂韻出版社,(02)23713333,10850,臺北市萬華區中華路1段196號3樓
龍文出版社股份有限公司,(02)22728092,22054,新北市板橋區中正路341巷32號1樓
力大圖書有限公司,(02)27332592,10662,臺北市大安區和平東路二段90巷2號4樓
大同大學,(02)21822928,10452,臺北市中山區中山北路三段40號
大境文化事業有限公司,(02)28387996,11142,臺北市士林區雨聲街77號1樓
文光圖書有限公司,(02)23789331,10675,臺北市大安區敦化南路二段267號6樓
木更工作室,972243934,23499,新北市永和郵局第5號信箱
中臺科技大學,(04)22391647,40601,臺中市北屯區?子路666號
弘光科技大學文化創意產業系,(04)26318652*5591,43302,臺中市沙鹿區臺灣大道6段1018號
目宿媒體,(02)23958665,10049,臺北市中正區北平東路20號10樓
世樺國際股份有限公司,(02)22469928,23554,新北市中和區中山路二段327巷11弄9號3樓
成大出版社,(06)2082330,70101,臺南市東區大學路1號
地平線文化,(02)27152022,10544,臺北市松山區復興北路331號4樓
早安財經文化有限公司,(02)23686840*107,10084,臺北市中正區羅斯福路二段150號13樓之8
光潽文創有限公司,(02)32345963*303,23586,新北市中和區中正路1180號3樓
合慶國際圖書有限公司,(02)28765070,11283,臺北市北投區天母西路105號3樓
多識界圖書文化有限公司,(02)22261515,23558,新北市中和區建一路7號7樓
佛陀四聖諦講堂,(07)3231262,80752,高雄市三民區中華二路223號5樓
育宙農業生技有限公司,(08)7701094,91246,屏東縣內埔鄉黎明村黎明路351號
赤粒藝術經紀策展有限公司,(02)87725887,10685,臺北市大安區大安路1段116巷15號
育達文化事業股份有限公司,(04)23160117,40756,臺中市西屯區何厝東二街81號
東吳大學,(02)28819471,11102,臺北市士林區臨溪路70號
奇果創新國際股份有限公司,(04)22257020,40043,臺中市中區綠川東街20號4樓之1
松根出版社,(02)32341179,23545,新北市中和區員山路504號5樓之9
奇盟子文化,(02)22346879,23158,新北市新店區安祥路109巷1弄40號
佳臺書店,(04)22139301,40758,臺中市西屯區大墩18街97號7樓
星火文化有限公司,(02)23319058,10046,臺北市中正區衡陽路7號8樓
活石文化事業有限公司,(02)23452753,10695,臺北市大安區光復南路505號11樓之4
美國世界日報臺北辦事處,(02)86925588*2229,22161,新北市汐止區大同路1段369號
南與北文化出版社,(02)27495303,70160,臺南市東區東寧路170巷13號1樓
信福出版社,910150151,10664,臺北市大安區復興南路2段12巷1號3樓
紅樹林出版,(02)25007008*2550,10483,臺北市中山區民生東路2段141號7樓
真行文化事業有限公司,(04)22659989,40255,臺中市南區南和路177號19樓之3
財團法人聖嚴教育基金會,(02)23979300,10056,臺北市中正區仁愛路二段56號
統一出版社有限公司,(02)82215077,23558,新北市中和區中山路二段409號5樓
野火文化有限公司,(02)26925016,22180,新北市汐止區康寧街169巷25號6樓
偉文出版社,(03)5258000,30041,新竹市東門街46號
基本書坊,(02)23684670,10084,臺北市中正區南昌路2段112號6樓
淡江大學外國語文學院,(02)26215656*2558,25137,新北市淡水區英專路151號
集文書局有限公司,(02)23085821,10883,臺北市萬華區環河南路2段125巷7弄16號
游擊文化股份有限公司,(02)86614183,10684,臺北市大安區復興南路2段332號B1
聖經資源中心,(02)82281318,23553,新北市中和區連城路236號3樓
臺北市玄微陽宅推廣協會,(02)22349129,11665,臺北市文山區秀明路一段79巷5弄9號1樓
臺虹文化企業有限公司,(02)27907133,11466,臺北市內湖區民權東路6段123巷20弄2號1樓
臺灣埔里獅子山正覺精舍,(049)2931907,54558,南投縣埔里鎮史港里獅子路1-6號
臺灣噶千佛學會,(02)86671620,23150,新北市新店區中央六街10號14樓
養正堂文化事業股份有限公司,(02)28615253,23578,新北市中和區景平路111巷61弄9號5樓
歐亞書局有限公司,(02)89121188,23145,新北市新店區寶橋路235巷118號5樓
龍馬文化有限公司,(05)6622419,63363,雲林縣土庫鎮大荖里31號
學獅教育有限公司,(06)3505565,70451,臺南市北區文成三路688號4樓
顏色貞觀文化事業有限公司,(03)5453229,30055,新竹市北區武陵路175巷11號19樓之4
檸檬樹國際書版有限公司,(02)29271121,23574,新北市中和區中安街80號3樓
藝軒圖書出版社,(02)29182288,23144,新北市新店區寶高路7巷3號2樓
?方藝廊股份有限公司,(02)85012138,10462,臺北市中山區北安路770巷28號
八正文化有限公司,(02)23361495,10861,臺北市萬華區萬大路27號2樓
人乘佛教書籍出版社,(06)2985786,70843,臺南市安平區平豐路391巷22弄28號
大千出版社,(02)22231391,23556,新北市中和區板南路498號7樓之2
大大創意,(02)23114194,10046,臺北市中正區懷寧街78號5樓之2
久石文化事業有限公司,(02)25372498,10451,臺北市中山區南京東路一段25號10樓之4
大笑文化有限公司,(03)3661292,33461,桃園市八德區廣隆街124巷24號
大億出版有限公司,(02)26878994,22071,新北市板橋區溪崑2街13號4樓
文心文化事業股份有限公司,(049)2933482,54048,南投縣南投市文昌街54巷12號
心弦股份有限公司,(02)26962869,22102,新北市汐止區新台五路1段112號10樓A棟
元氣齋出版社有限公司,(02)88091106,25170,新北市淡水區中正東路2段27號28樓
中華奧林匹克委員會,(02)27521440,10489,臺北市中山區朱崙街20號
世界書局股份有限公司,(02)23113834,10045,臺北市中正區重慶南路一段99號6樓
正修科技大學,(07)7358800*6306,83347,高雄市鳥松區澄清路840號
米迦勒傳播事業股份有限公司,(02)80243911,23544,新北市中和區中正路911號7樓
行路,(02)22181417,23141,新北市新店區民權路108之4號8樓
利吉印刷有限公司,(08)7232993,90049,屏東縣屏東市民福路78號
宏冠出版社,(07)5315351,80417,高雄市鼓山區鼓山二路33號
貝塔出版有限公司,(02)23142525,10047,臺北市中正區館前路12號11樓
和一文化出版有限公司,(03)4222355,32070,桃園市中壢區環北路398號8樓之8
亞太政治哲學文化出版有限公司,(02)27177907,105,臺北市松山區南京東路5段48號7樓
芬妮英語教室文化出版社,(05)5362119,64049,雲林縣斗六市明德北路2段69號
松祿文化事業股份有限公司,(02)23326000,10077,臺北市中正區重慶南路三段48號1樓
美日文本文化館,(02)89524078,22066,新北市板橋區板新路206號3樓
飛天出版社,(02)22227270,23557,新北市中和區中山路二段530號6樓之1
南瓜國際有限公司,(02)27953656,11070,臺北市信義區東興路45號8樓
活字出版,(02)22181417,23141,新北市新店區民權路108-4號8樓
胖胖熊國際事業有限公司,(07)5555938,80468,高雄市鼓山區明倫路506號
南華大學,(05)2721001*1880,62248,嘉義縣大林鎮中坑里32號
美樂出版社,(02)23116302,10862,臺北市萬華區中華路二段81巷8號4樓
桂冠圖書股份有限公司,(037)832001,35241,苗栗縣三灣鄉中山路2號
原笙國際有限公司,(03)3364673,33059,桃園市桃園區中山路539號7樓
悅翔數位印刷有限公司,(04)22637117,40255,臺中市南區忠明南路1183號
馬跡庫比有限公司,(02)27338118,10663,臺北市大安區復興南路二段268號5樓
益群書店股份有限公司,(02)25533123,10359,臺北市大同區重慶北路二段229號之9
桃園縣亞太數位學習學會,(03)4227151*35404,32001,桃園市中壢區中大路300號
財團法人董氏基金會<>雜誌,(02)27766133,10595,臺北市松山區復興北路57號12樓之3
財團法人臺北市基督教救世傳播協會彭蒙惠英語出版社,(02)25338082,10462,臺北市中山區大直街62巷10號
康乃爾英語股份有限公司,(04)35005800,40249,臺中市南區南門路35號
健行科技大學,(03)4581196,32097,桃園市中壢區健行路229號
捷你爾有限公司,(05)2811000,60095,嘉義市福全里四維路81號
停雲出版社,(02)23318262,10050,臺北市中正區重慶南路1段99號11樓之6
寂寞出版社股份有限公司,(02)25703939,10553,臺北市松山區南京東路四段50號6樓之1
越文書局有限公司,(02)29262805,23448,新北市永和區中正路660號5樓
腓利門實業股份有限公司,(04)22436960*1252,40673,臺中市北屯區松竹路2段180號
智庫雲端有限公司,(02)25073316,10455,臺北市中山區長安東路二段67號3樓
智翔文化有限公司,(04)22594218,40874,臺中市西屯區大業路557號3樓
証業出版股份有限公司,(02)23416892,10054,臺北市中正區濟南路二段13號6樓
無境文化事業股份有限公司,920802772,80284,高雄市苓雅區中正一路120號7樓之1
華魁科技顧問有限公司,(02)87718299,10556,臺北市松山區敦化南路1段80巷19號5樓
新芽音樂文化事業有限公司,(02)28277123,11147,臺北市士林區忠誠路二段50巷13號1樓
新裕豐文化事業有限公司,(07)2352468,80053,高雄市新興區南華橫一路17-1號
慈濟人文志業中心 中文期刊部,(02)28989000*2054,11259,臺北市北投區立德路2號12樓
經濟日報,(02)86925588*2745,10654,新北市汐止區大同路一段369號4樓
聖環圖書股份有限公司,(02)29566460,22063,新北市板橋區四川路1段31號8樓之1
遠見雜誌,(02)25173688*460,10455,臺北市中山區松江路93巷1號2樓
榮益印刷事業有限公司,(02)82281940,23553,新北市中和區連城路236號3樓
嘉章出版社,(02)25910784,10472,臺北市松江路402巷8弄11號3樓
臺灣中華書局股份有限公司,(02)87978669,11494,臺北市內湖區舊宗路二段181巷8號5樓
樂知事業有限公司,(02)25067967,10455,臺北市中山區長安東路2段67號9樓之1
蔚藍文化出版股份有限公司,(02)77107864,10667,臺北市大安區復興南路2段237號13樓
醒吾科技大學,(02)26015310,24452,新北市林口區粉寮路1段101號
禪天下出版有限公司,(02)25583836,10351,臺北市大同區承德路1段17號8樓之5
聯合報新聞部,(02)86925588*3145,22161,新北市汐止區大同路1段369號
鴻林圖書有限公司,(04)26520948,43302,臺中市沙鹿區臺灣大道6段1018號
大立文創企業股份有限公司,(02)27083855,10681,臺北市大安區信義路4段184號9樓
女書文化事業有限公司,(02)23638244,10660,臺北市大安區新生南路三段56巷7號2樓
大肅文化,(02)23114194,10046,臺北市中正區懷寧街78號9樓
上旗文化事業股份有限公司,(02)27775565*16,10689,臺北市大安區仁愛路四段125號9樓
大鴻藝術股份有限公司合作社出版,(02)25590510,10349,臺北市大同區鄭州路87號11樓之2
方寸文創事業有限公司,(02)27751983,10690,臺北市大安區忠孝東路4段221號10樓之106
元神館出版社有限公司,(02)88091106,25170,新北市淡水區中正東路2段27號28樓
中華系統性創新學會,(03)5723200*14,30071,新竹市光復路二段352號6樓
中華財政學會,(02)23958755,10053,臺北市中正區忠孝東路二段100號305室
日毅企業有限公司,(02)23316788,10045,臺北市中正區博愛路91號
月臨畫廊,(04)23711219,40458,臺中市英才路589巷6號1樓
木蘭文化事業有限公司,(02)25431636,10456,臺北市中山區長安東路2段52號10樓之3
正大出版社有限公司,(02)25976950,10460,臺北市中山區雙城街28巷23-1號
正大光明毛筆有限公司,(04)23384467,40452,臺中市北區榮華街20巷5號
古今藝文出版社,(04)7255183,50041,彰化縣彰化市曉陽路300巷16之3號
立京實業有限公司,(02)87512677,11474,臺北市內湖區瑞光路295號4樓
主流出版有限公司,(03)9371001,10570,臺北市松山區南京東路五段123巷4弄24號2樓
以斯拉出版有限公司,(02)25023640,10482,臺北市中山區松江路473號6樓
世潮出版有限公司,(02)22183277,23150,新北市新店區民生路19號5F
田點工作室,916258783,11676,臺北市文山區溪洲街23巷8號4樓
有樂出版事業有限公司,(02)25775860,11492,臺北市內湖區瑞光路583巷30號7樓
希代多媒體書版股份有限公司,(02)27992788*126,11493,臺北市內湖區洲子街88號3樓
育林出版社,(02)28820921,11143,臺北市士林區大西路18號
李茲文化有限公司,(02)86672245,23142,新北市新店區建國路257號8樓之5
志慧科技,(02)27196844,10553,臺北市松山區南京東路4段133巷7弄30號4樓
采泥國際文化事業有限公司,(02)22219969,23585,新北市中和區建康路160號11樓
亞洲大學通識教育中心,(04)23323456*6171,41354,臺中市霧峰區柳豐路500號
法界佛教總會中文出版部,(02)27863022,11575,臺北市南港區忠孝東路六段85號11樓
河畔出版社,(07)3847890,80781,高雄市三民區建興路123巷12弄2號
來勝文化事業有限公司,(02)23707890,10047,臺北市中正區館前路12號10樓
依揚想亮人文事業有限公司,988537523,24444,新北市林口區後湖55號3樓
果實文化有限公司,(02)26594952,11493,臺北市內湖區洲子路181號2樓
青橄欖出版社,(02)32341063,23553,新北市中和區連城路236號3樓
奇蹟課程有限公司,(04)22451255,40673,臺中市北屯區松強里九甲巷16-3號
美好生活制作所,(02)26642511,22244,新北市深坑區北深路3段141巷24號4樓
故事家文化工作室,(04)23193526,40350,臺中市西區公益路124巷7號1樓
食為天文創有限公司,(02)23774155,10679,臺北市大安區安和路2段213號4樓
紅桌文化,(02)25324986,10464,臺北市中山區大直街117號5樓
香港商雅凱電腦語音有限公司臺灣分公司,(02)27135355,10580,臺北市松山區南京東路四段143號10樓
香港創古法源文化有限公司,(02)86650198,23147,新北市新店區北新路1段293號16樓之7
風雲論壇有限公司,(02)86934096,22151,新北市汐止區福德二路359巷7號5樓
活道出版社,(06)2136287,70047,臺南市大同路一段250巷14號1樓
南臺科技大學,(06)2533131*2120,71005,臺南市永康區南台街1號
茂榮書局,(02)23456112,11051,臺北市信義區基隆路一段366-1號1樓
洪範書店有限公司,(02)23657577,10082,臺北市中正區廈門街113巷17-1號2樓
耶魯國際文化事業有限公司,(02)22546565,22046,新北市板橋區忠孝路201巷10號
桂氏文化事業有限公司,(02)28318095,11154,臺北市士林區士東路306號10樓
真平企業有限公司,(06)2585148*61,70949,臺南市府安路7段10巷13號
祐安大?,930187888,25173,新北市淡水區民權路173巷15號
原富傳媒股份有限公司,(02)25113511,10457,臺北市中山區南京東路二段6號6樓
財團法人大學入學考試中心基金會,(02)23661416,10673,臺北市大安區舟山路237號
財團法人中華民國兒童福利聯盟文教基金會,(02)25505959,10351,臺北市大同區長安西路43號6樓
財團法人中衛發展中心,(02)27513468*8544,10050,臺北市中正區杭州南路一段15-1號3樓
財團法人佛陀教育基金會,(02)23951198,100,臺北市杭州南路一段55號11樓
財團法人奇美博物館基金會,(06)2660808,71755,臺南市仁德區文華路2段66號
財團法人國家實驗研究院實驗動物中心,(02)27895877,11529,臺北市南港郵政1-86號信箱
財團法人資誠教育基金會,(02)27296666,11012,臺北市信義區基隆路一段333號27樓
財團法人臺北市關渡宮,(02)28581281,11260,臺北市北投區知行路360號
情書出版社,(02)27297991,11074,臺北市信義區光復南路521號13樓之1
國家華語測驗推動工作委員會,(02)77345638,24449,新北市林口區仁愛路1段2號
雪域出版社,(02)27360366,11054,臺北市信義區基隆路二段189號十樓之4
曾仕強文化事業有限公司,(02)23611379,10045,臺北市中正區重慶南路一段57號8樓-14
智言館文化有限公司,(02)22182708,10361,新北市新店區中央五街42號
普音文化事業股份有限公司,(02)83691520,10695,臺北市大安區光復南路390號3樓
菜根香出版社,(07)3552582,81164,高雄市楠梓區清豐三路160巷46號
童話國際有限公司,(07)3962141,80761,高雄市三民區民族一路88-1號25樓之3
雄獅圖書股份有限公司,(02)27726311,10627,臺北市大安區忠孝東路四段216巷33弄16號
費邊社文創有限公司,983103851,10552,臺北市松山區八德路2段437巷7弄2號
新發廣告設計企業社,(08)7375011,90054,屏東縣屏東市太平里新發巷2號
傳愛家族傳播文化事業有限公司,(02)24579231,20546,基隆市暖暖區東碇路726號1樓
慈濟傳播人文志業基金會,(02)28989000*2076,11259,臺北市北投區立德路2號12樓
慈濟學校財團法人慈濟大學,(03)8565301,97004,花蓮縣花蓮市中央路三段701號
遠見天下文化出版股份有限公司<>全球繁體中文版,(02)25173688*609,10455,臺北市中山區松江路93巷1號1樓
銘傳大學法律學院,(02)28824564,11143,臺北市士林區中山北路五段250號
寧瑪巴喇榮三乘法林佛學會,(02)23676728,10078,臺北市中正區汀州路二段115號5樓
臺灣國際研究學會,(02)23131143,10045,臺北市中正區衡陽路51號12樓之4
摩登出版社有限公司,(02)27296358,11051,臺北市信義區基隆路1段432號2樓
寫憶文化創意有限公司,(02)29307935,11674,臺北市文山區羅斯福路六段306號4樓
廣懋圖書股份有限公司,(04)22472830,40652,臺中市北屯區熱河路三段121號
龍時代,(02)27043265,10682,臺北市大安區信義路四段98號12樓之2
學齡國際有限公司,(02)29852077,10461,臺北市中山區中山北路3段29號7樓之4
謳馨事業股份有限公司,(02)23567146,10641,臺北市松山區信義路二段72號2樓
爆米花創意音樂工作室,(02)26327562,10647,臺北市大安區師大路129號6樓之1
藝峰書法學苑,972388448,61547,嘉義縣六腳鄉魚寮村121號之2
SPR學術論壇,(02)55760996,10499,臺北市中山區長安郵局第46-33號
一人出版社,(02)25372497,10450,臺北市中山區南京東路一段25號10樓之4
一串小米族語獨立出版工作室,976547685,98249,花蓮縣卓溪鄉中興28號
人本自然文化事業有限公司,(02)22182708,23150,新北市新店區中央五街42號
力翰文教管理顧問股份有限公司,(03)4639343,32073,桃園市中壢區遠東路81巷3號
三一二八生活美學文化創意有限公司,(02)27613128,10569,臺北市松山區南京東路5段272號4樓
上大聯合股份有限公司,(02)22222130,23512,新北市中和區立德街160號7樓
大古出版社,(04)23215438,40861,臺中市南屯區大墩12街160號
上林文化事業有限公司,(02)23628269,10647,臺北市大安區辛亥路一段72號1樓
上揚國際開發股份有限公司,(02)22191604,23147,新北市新店區新店路260-2號17樓
上鋐書庫有限公司,(07)2255555,80047,高雄市新興區尚義街124號
今日軒文化事業有限公司,(04)22077408,40458,臺中市北區中清路一段89號10樓之8
少年兒童出版社,(02)23311675,10045,臺北市中正區重慶南路1段121號8樓14
中國土木水利工程學會,(02)23926325,10055,臺北市中正區仁愛路二段1號4樓
元華文創股份有限公司,(02)23511607,10075,臺北市中正區重慶南路2段51號4樓
中華古籍出版社,(02)28620707,11149,臺北市士林區永公路500巷48號
手藝家書局,(02)29596157,22044,新北市板橋區長江路3段123號4樓
禾流文創有限公司,(02)26535343,11574,臺北市南港區經貿二路255巷47號
生智文化事業有限公司,(02)86626826,22205,新北市深坑區北深路三段258號8樓
世新大學,(02)22368225,11642,臺北市文山區木柵路1段17巷1號
台灣宗教與社會協會,(02)28588198,11257,臺北市北投區中央北路4段515巷48號2樓
向上出版事業有限公司,(02)87890169,11061,臺北市信義區忠孝東路五段412號17樓之3
光田出版社,(06)2618559,70268,臺南市安平工業區新信路32號
亦安工作室,(02)27527002,10685,臺北市大安區仁愛路4段29-1號
西伊歐技術諮詢顧問股份有限公司,(06)2207665,70444,臺南市北區西門路3段159號12樓之3
百利出版社,(02)23884432,10047,臺北市中正區南陽街14號
安卓藝術股份有限公司,(02)23656008,10645,臺北市大安區和平東路一段180號7樓
有故事股份有限公司,(02)27652000,11070,臺北市信義區基隆路178號3樓
全威圖書有限公司,(02)22900319*303,24889,新北市新北產業園區五工三路116巷3號
老乾坤文化出版社,(03)3469049,33045,桃園市同德六街89號6樓之3
朵雲文化出版有限公司,(02)29484070,23575,新北市中和區景新街496巷39弄16之2號
宏全資訊股份有限公司,(02)29716507,24162,新北市三重區忠孝路2段32巷25號12樓
亨利出版社,(02)22331782,23450,新北市永和區永安街33巷4號
明山書局,(05)2384768,60086,嘉義市西區世賢路一段628號
東山講堂,(02)27083272,10687,臺北市大安區仁愛路四段50-21號4樓
明宗書法藝術館,(07)6991065,82947,高雄市湖內區保生路103號
亞洲大學,(04)23323456,41354,臺中市霧峰區柳豐路500號
侑泰行國際有限公司,(02)27239968,11049,臺北市信義區莊敬路289巷29號
武陵出版社,(02)27359985,11053,臺北市信義區基隆路二段125號7樓之2
法源出版文化事業社,(04)24813802,41245,臺中市大里區大明路223巷40號
法源資訊股份有限公司,(02)25093536,10489,臺北市中山區南京東路2段150號6樓
法意資產管理股份有限公司,(02)25670890,10541,臺北市松山區民族東路733之1號
社團法人中華民國企業永續發展協會,(02)27058859,10656,臺北市大安區復興南路一段390號13樓
社團法人臺灣自殺防治學會,(02)23817995*201,10044,臺北市中正區博愛路63號6樓
幸福空間有限公司,(02)27161191,10543,臺北市松山區民權東路三段106巷21弄10號
阿爾發國際文化事業有限公司,(02)23123379,23442,新北市永和區竹林路91巷60弄27號5樓
明德出版社,(02)22429453,23558,新北市中和區橋和路122號6樓之2
奇霖管理顧問有限公司,(06)2958965,70846,臺南市安平區文平路187巷111號
和鴻益電影製作有限公司,(02)23025277,10851,臺北市萬華區和平西路3段34巷1號
建弘出版社有限公司,(02)23616850,10045,臺北市中正區重慶南路一段41號1樓
城邦原創POPO出版,(02)25095506,10483,臺北市中山區民生東路2段141號6樓
首席文化出版社,(02)23880103,10047,臺北市中正區開封街一段12號1樓
恆萃工坊,(02)27557093,10681,臺北市大安區安和路1段99號13樓之2
昶景文化事業有限公司,(07)7926763,83093,高雄市鳳山區保生路298號3樓
俊傑書局股份有限公司,(02)21621217,10671,臺北市大安區辛亥路三段5號
致鼎國際有限公司,(02)27171919,11074,臺北市信義區光復南路495號9樓之2
姿霓文化有限公司,(02)82419139,23554,新北市中和區中山路二段131巷13弄13號1樓
高元進階智庫有限公司,(06)2225399,70043,臺南市中西區民族路2段67號3樓
索卡當代藝術有限公司,(02)25700390,10462,臺北市中山區堤頂大道2段350號
海穹文化有限公司,921672903,10677,臺北市大安區基隆路2段136號6樓之1
唐威廉文化事業股份有限公司,(02)23951680,10092,臺北市中正區愛國東路34號2樓
桑格文化有限公司,(02)27755907,10552,臺北市松山區復興北路15號14樓之4(1417室)
凌雲工作室,955319403,35799,苗栗縣通霄郵局68號信箱
財團法人罕見疾病基金會,(02)25210717,10448,臺北市中山區中山北路二段52號10樓
財團法人宜蘭社區大學教育基金會,(03)9311749,26051,宜蘭縣宜蘭市復興路二段77號
財團法人保險事業發展中心,(02)23972227,10066,臺北市中正區南海路3號6樓
財團法人國際合作發展基金會,(02)28732323,11157,臺北市士林區天母西路62巷9號13樓
財團法人新人類文明文教基金會,(02)89119151,23147,新北市新店區北新路1段339號2樓
財團法人臺灣永續能源研究基金會,(02)27682655,10560,臺北市松山區光復北路11巷35號5樓
財團法人臺灣兒童暨家庭扶助基金會,(04)22061234,40341,臺中市西區民權路234號12樓
淨土宗出版社,(02)27580689,11059,臺北市信義區信義路五段150巷22弄41號
唯心聖教學院,(049)2240306,54059,南投縣南投市漳和里文化路705巷667號
國立臺南第一高級中學,(06)2371206*600,70145,臺南市民族路一段1號
淡江大學,(02)86318661,25137,新北市淡水區英專路151號
淡江大學歷史學系,(02)26215656*2328,25137,新北市淡水區英專路151號
陳偉文化事業股份有限公司,(02)25554977,10351,臺北市大同區承德路一段35號5樓之2
專業全民英檢出版股份有限公司,(04)24701000,40846,臺中市南屯區永春東三路41號
甯文創事業有限公司,(02)27041111*203,10665,臺北市大安區復興南路二段45號2樓
斐亞文化藝術股份有限公司,(02)27711270,10688,臺北市大安區敦化南路一段225號3樓之1
凱信企業集團凱信出版事業有限公司,(02)27736571,10692,臺北市大安區忠孝東路4段218-7號7樓
開朗雜誌事業有限公司,(06)2800301,70949,臺南市府安路七段19巷12號
雅筑國際股份有限公司,(02)22696161,23676,新北市土城區中央路4段74號1樓
逸群圖書有限公司,(04)8680715,52656,彰化縣二林鎮華崙里挖仔路2-3號
智寬文化事業有限公司,(02)82215077,23558,新北市中和區中山路二段409號5樓
智學堂文化事業有限公司,(02)86473662,22103,新北市汐止區大同路三段194號9樓之1
景薰樓藝術集團333畫廊,(04)23161833,40751,臺中市西屯區華美西街2段333號B1
腳丫文化出版事業有限公司,(02)25176688,24158,新北市三重區光復路1段61巷27號11樓
源中出版社,(04)23757859,40244,臺中市南區柳川東路一段86號14樓之1
圓晟出版社,(02)23660357,106,臺北市師大路102巷6號2樓
誠益國際有限公司,(02)24378720,20347,基隆市中山區中和路139-18號
愛普拉斯有限公司,981662566,23444,新北市永和區仁愛路282巷32號11樓
慈惠堂出版社,(049)2642964,55744,南投縣竹山鎮大明路150號
意識文化有限公司,(02)25788578,11065,臺北市信義區忠孝東路5段372巷27弄78之1號1樓
誌成文化有限公司,(02)29388698,11649,臺北市文山區興隆路四段165巷13號1樓
語言工場出版有限公司,(02)23659739,106,臺北市新生南路三段88號4樓之5
僧伽林文化事業出版社,(07)5549293,80458,高雄市鼓山區裕誠路1029號11樓
榜首英語,910580766,43445,臺中市龍井區中央路3段63號
豪記影視唱片有限公司,(06)2151000,70052,臺南市健康路一段18號2樓
管理資訊計算編輯委員會,936340150,11473,臺北市內湖區文德路171巷1弄3號3樓
銘傳大學,(02)28809725,11103,臺北市士林區中山北路五段250號
睿煜出版社,(08)7703957,91247,屏東縣內埔鄉興南村育文路68號
臺灣身體文化學會,(02)27350713,10662,臺北市大安區和平東路二段96巷15弄40號1樓
臺灣胸腔暨重症加護醫學會,(02)23144089,10048,臺北市中正區常德街1號臺大景福館
臺灣電路板協會,(03)3815659,33743,桃園市大園區高鐵北路2段147號
臺灣緊急醫療救護訓練協會,(03)4940379,32449,桃園市平鎮區廣泰路77號
臺灣繪本協會,(02)29459086,23159,新北市新店區永安街93之4號9樓
德之齋書院,(02)22163227,,新北市新店區禾豐六路88號
德明財經科技大學不動產與永續城鄉研究室,(02)25685801*2752,11451,臺北市內湖區環山路一段56號
標竿出版社,(04)24716227,40356,臺中市西區向上路一段402號12樓之7
靜宜大學,(04)26328001*17062,43301,臺中市沙鹿區臺灣大道7段200號
螞蟻創作工作室,(04)22382982,40650,臺中市北屯區青島路四段243號3樓
薄伽梵有限公司,(02)27272860*102,10675,臺北市大安區大安路二段100號B1
賽尚圖文事業有限公司,(02)27388115,10676,臺北市大安區臥龍街267之4號1樓
戴維克文化出版有限公司,(02)26484554,22185,新北市汐止區大同路2段269號21樓之4
藝文印書館股份有限公司,(02)23626012,10647,臺北市大安區羅斯福路三段253號4樓之3
霧峰向日葵家園,(04)23301064,41345,臺中市霧峰區民生路文化巷1號
麗格國際事業股份有限公司,(07)5217108,80451,高雄市鼓山區九如四路953號16樓之2
寶之藝文化事業有限公司,(02)27477749,11068,臺北市信義區永吉路302號5樓之3
櫻花村出版社,(06)2113280,70050,臺南市公園路824巷21號
靈活文化事業有限公司,(02)23086323,10851,臺北市萬華區和平西路三段382巷2弄19號1樓
